{
  "type": "FeatureCollection",
  "features": [
    {
      "type": "Feature",
      "properties": {
        "norad_id": 39773,
        "name": "EUTELSAT 3B",
        "group": "eutelsat",
        "lat": 0.03428334695104907,
        "lon": 146.44475359662786,
        "alt_km": 35784.49915871349,
        "timestamp": "2025-12-16T03:53:26.730212+00:00",
        "meta_object_name": "EUTELSAT 3B",
        "meta_object_id": "2014-030A",
        "meta_epoch": "2025-12-15T06:33:17.479872",
        "meta_mean_motion": 1.00271425,
        "meta_eccentricity": 0.00043636,
        "meta_inclination": 0.0605,
        "meta_ra_of_asc_node": 354.8563,
        "meta_arg_of_pericenter": 236.3038,
        "meta_mean_anomaly": 314.4322,
        "meta_ephemeris_type": 0,
        "meta_classification_type": "U",
        "meta_norad_cat_id": 39773,
        "meta_element_set_no": 999,
        "meta_rev_at_epoch": 4222,
        "meta_bstar": 0,
        "meta_mean_motion_dot": 4.1e-07,
        "meta_mean_motion_ddot": 0,
        "tle_line1": "1 39773U 14030A   25349.27311898  .00000041  00000+0  00000+0 0  9992",
        "tle_line2": "2 39773   0.0605 354.8563 0004363 236.3038 314.4322  1.00271425 42228"
      },
      "geometry": {
        "type": "Point",
        "coordinates": [
          146.44475359662786,
          0.03428334695104907
        ]
      }
    },
    {
      "type": "Feature",
      "properties": {
        "norad_id": 40425,
        "name": "EUTELSAT 115 WEST B",
        "group": "eutelsat",
        "lat": 0.01900083388041616,
        "lon": 28.50586158188241,
        "alt_km": 35787.111986033364,
        "timestamp": "2025-12-16T03:53:26.730224+00:00",
        "meta_object_name": "EUTELSAT 115 WEST B",
        "meta_object_id": "2015-010B",
        "meta_epoch": "2025-12-15T08:27:38.617056",
        "meta_mean_motion": 1.00270198,
        "meta_eccentricity": 1.61e-05,
        "meta_inclination": 0.0426,
        "meta_ra_of_asc_node": 166.1328,
        "meta_arg_of_pericenter": 67.8489,
        "meta_mean_anomaly": 222.2908,
        "meta_ephemeris_type": 0,
        "meta_classification_type": "U",
        "meta_norad_cat_id": 40425,
        "meta_element_set_no": 999,
        "meta_rev_at_epoch": 3955,
        "meta_bstar": 0,
        "meta_mean_motion_dot": -3e-08,
        "meta_mean_motion_ddot": 0,
        "tle_line1": "1 40425U 15010B   25349.35253029 -.00000003  00000+0  00000+0 0  9996",
        "tle_line2": "2 40425   0.0426 166.1328 0000161  67.8489 222.2908  1.00270198 39551"
      },
      "geometry": {
        "type": "Point",
        "coordinates": [
          28.50586158188241,
          0.01900083388041616
        ]
      }
    },
    {
      "type": "Feature",
      "properties": {
        "norad_id": 40875,
        "name": "EUTELSAT 8 WEST B",
        "group": "eutelsat",
        "lat": 0.06732945130064376,
        "lon": 135.38182804489432,
        "alt_km": 35797.49624835137,
        "timestamp": "2025-12-16T03:53:26.730236+00:00",
        "meta_object_name": "EUTELSAT 8 WEST B",
        "meta_object_id": "2015-039B",
        "meta_epoch": "2025-12-15T06:30:02.791296",
        "meta_mean_motion": 1.00271791,
        "meta_eccentricity": 0.00042616,
        "meta_inclination": 0.0674,
        "meta_ra_of_asc_node": 13.6886,
        "meta_arg_of_pericenter": 251.0572,
        "meta_mean_anomaly": 268.957,
        "meta_ephemeris_type": 0,
        "meta_classification_type": "U",
        "meta_norad_cat_id": 40875,
        "meta_element_set_no": 999,
        "meta_rev_at_epoch": 3781,
        "meta_bstar": 0,
        "meta_mean_motion_dot": -4.5e-07,
        "meta_mean_motion_ddot": 0,
        "tle_line1": "1 40875U 15039B   25349.27086564 -.00000045  00000+0  00000+0 0  9991",
        "tle_line2": "2 40875   0.0674  13.6886 0004261 251.0572 268.9570  1.00271791 37814"
      },
      "geometry": {
        "type": "Point",
        "coordinates": [
          135.38182804489432,
          0.06732945130064376
        ]
      }
    },
    {
      "type": "Feature",
      "properties": {
        "norad_id": 41310,
        "name": "EUTELSAT 9B",
        "group": "eutelsat",
        "lat": 0.04964900010425299,
        "lon": 152.35088899066415,
        "alt_km": 35795.72608134696,
        "timestamp": "2025-12-16T03:53:26.730248+00:00",
        "meta_object_name": "EUTELSAT 9B",
        "meta_object_id": "2016-005A",
        "meta_epoch": "2025-12-15T06:34:54.825024",
        "meta_mean_motion": 1.00271077,
        "meta_eccentricity": 0.00045361,
        "meta_inclination": 0.051,
        "meta_ra_of_asc_node": 67.7919,
        "meta_arg_of_pericenter": 204.4187,
        "meta_mean_anomaly": 279.6907,
        "meta_ephemeris_type": 0,
        "meta_classification_type": "U",
        "meta_norad_cat_id": 41310,
        "meta_element_set_no": 999,
        "meta_rev_at_epoch": 3627,
        "meta_bstar": 0,
        "meta_mean_motion_dot": 8.3e-07,
        "meta_mean_motion_ddot": 0,
        "tle_line1": "1 41310U 16005A   25349.27424566  .00000083  00000+0  00000+0 0  9999",
        "tle_line2": "2 41310   0.0510  67.7919 0004536 204.4187 279.6907  1.00271077 36273"
      },
      "geometry": {
        "type": "Point",
        "coordinates": [
          152.35088899066415,
          0.04964900010425299
        ]
      }
    },
    {
      "type": "Feature",
      "properties": {
        "norad_id": 41382,
        "name": "EUTELSAT 65 WEST A",
        "group": "eutelsat",
        "lat": 0.06729612671588742,
        "lon": 78.21022635825395,
        "alt_km": 35796.15200316582,
        "timestamp": "2025-12-16T03:53:26.730260+00:00",
        "meta_object_name": "EUTELSAT 65 WEST A",
        "meta_object_id": "2016-014A",
        "meta_epoch": "2025-12-15T04:54:38.888064",
        "meta_mean_motion": 1.00271238,
        "meta_eccentricity": 0.00023984,
        "meta_inclination": 0.0541,
        "meta_ra_of_asc_node": 20.4418,
        "meta_arg_of_pericenter": 252.5598,
        "meta_mean_anomaly": 179.5724,
        "meta_ephemeris_type": 0,
        "meta_classification_type": "U",
        "meta_norad_cat_id": 41382,
        "meta_element_set_no": 999,
        "meta_rev_at_epoch": 3569,
        "meta_bstar": 0,
        "meta_mean_motion_dot": -2.56e-06,
        "meta_mean_motion_ddot": 0,
        "tle_line1": "1 41382U 16014A   25349.20461676 -.00000256  00000+0  00000+0 0  9997",
        "tle_line2": "2 41382   0.0541  20.4418 0002398 252.5598 179.5724  1.00271238 35699"
      },
      "geometry": {
        "type": "Point",
        "coordinates": [
          78.21022635825395,
          0.06729612671588742
        ]
      }
    },
    {
      "type": "Feature",
      "properties": {
        "norad_id": 41589,
        "name": "EUTELSAT 117 WEST B",
        "group": "eutelsat",
        "lat": -0.009764283247203676,
        "lon": 26.403365730527078,
        "alt_km": 35787.20434480912,
        "timestamp": "2025-12-16T03:53:26.730272+00:00",
        "meta_object_name": "EUTELSAT 117 WEST B",
        "meta_object_id": "2016-038B",
        "meta_epoch": "2025-12-14T23:08:05.366400",
        "meta_mean_motion": 1.00269355,
        "meta_eccentricity": 1.202e-05,
        "meta_inclination": 0.0103,
        "meta_ra_of_asc_node": 155.4943,
        "meta_arg_of_pericenter": 36.5325,
        "meta_mean_anomaly": 121.8783,
        "meta_ephemeris_type": 0,
        "meta_classification_type": "U",
        "meta_norad_cat_id": 41589,
        "meta_element_set_no": 999,
        "meta_rev_at_epoch": 3481,
        "meta_bstar": 0,
        "meta_mean_motion_dot": 9e-08,
        "meta_mean_motion_ddot": 0,
        "tle_line1": "1 41589U 16038B   25348.96395100  .00000009  00000+0  00000+0 0  9997",
        "tle_line2": "2 41589   0.0103 155.4943 0000120  36.5325 121.8783  1.00269355 34818"
      },
      "geometry": {
        "type": "Point",
        "coordinates": [
          26.403365730527078,
          -0.009764283247203676
        ]
      }
    },
    {
      "type": "Feature",
      "properties": {
        "norad_id": 42741,
        "name": "EUTELSAT 172B",
        "group": "eutelsat",
        "lat": -0.0164906615305678,
        "lon": -44.62787730271502,
        "alt_km": 35786.29880685839,
        "timestamp": "2025-12-16T03:53:26.730284+00:00",
        "meta_object_name": "EUTELSAT 172B",
        "meta_object_id": "2017-029B",
        "meta_epoch": "2025-12-15T08:17:38.739264",
        "meta_mean_motion": 1.00270284,
        "meta_eccentricity": 2.935e-05,
        "meta_inclination": 0.0146,
        "meta_ra_of_asc_node": 58.9612,
        "meta_arg_of_pericenter": 338.1576,
        "meta_mean_anomaly": 343.5175,
        "meta_ephemeris_type": 0,
        "meta_classification_type": "U",
        "meta_norad_cat_id": 42741,
        "meta_element_set_no": 999,
        "meta_rev_at_epoch": 3188,
        "meta_bstar": 0,
        "meta_mean_motion_dot": 0,
        "meta_mean_motion_ddot": 0,
        "tle_line1": "1 42741U 17029B   25349.34558726  .00000000  00000+0  00000+0 0  9998",
        "tle_line2": "2 42741   0.0146  58.9612 0000293 338.1576 343.5175  1.00270284 31881"
      },
      "geometry": {
        "type": "Point",
        "coordinates": [
          -44.62787730271502,
          -0.0164906615305678
        ]
      }
    }
  ]
}